[{"OBJECT_NAME":"CUBEBEL 2 (EU11S)","OBJECT_ID":"2023-091K","EPOCH":"2026-03-09T21:40:29.186112","MEAN_MOTION":15.26706784,"ECCENTRICITY":0.00118653,"INCLINATION":97.517,"RA_OF_ASC_NODE":131.3579,"ARG_OF_PERICENTER":105.889,"MEAN_ANOMALY":254.3657,"EPHEMERIS_TYPE":0,"CLASSIFICATION_TYPE":"U","NORAD_CAT_ID":57175,"ELEMENT_SET_NO":999,"REV_AT_EPOCH":14914,"BSTAR":0.00056688644,"MEAN_MOTION_DOT":0.00014859,"MEAN_MOTION_DDOT":0},{"OBJECT_NAME":"STARLINK-30780","OBJECT_ID":"2023-162Y","EPOCH":"2026-03-09T22:00:01.999584","MEAN_MOTION":15.26736693,"ECCENTRICITY":0.00014227,"INCLINATION":43.0012,"RA_OF_ASC_NODE":130.8819,"ARG_OF_PERICENTER":263.9518,"MEAN_ANOMALY":163.111,"EPHEMERIS_TYPE":0,"CLASSIFICATION_TYPE":"U","NORAD_CAT_ID":58140,"ELEMENT_SET_NO":999,"REV_AT_EPOCH":563,"BSTAR":-0.00029071414,"MEAN_MOTION_DOT":-8.049e-5,"MEAN_MOTION_DDOT":0}]
